[{"OBJECT_NAME":"PRAETORIAN SDA_603","OBJECT_ID":"2025-203B","EPOCH":"2026-03-09T13:37:04.528992","MEAN_MOTION":13.83903559,"ECCENTRICITY":0.001079,"INCLINATION":81.3003,"RA_OF_ASC_NODE":102.8981,"ARG_OF_PERICENTER":102.3539,"MEAN_ANOMALY":257.8826,"EPHEMERIS_TYPE":0,"CLASSIFICATION_TYPE":"U","NORAD_CAT_ID":65566,"ELEMENT_SET_NO":999,"REV_AT_EPOCH":2492,"BSTAR":0.0001631,"MEAN_MOTION_DOT":1.93e-6,"MEAN_MOTION_DDOT":0},{"OBJECT_NAME":"COSMOS 1821","OBJECT_ID":"1987-017A","EPOCH":"2026-03-09T22:49:40.857312","MEAN_MOTION":13.73940734,"ECCENTRICITY":0.00359841,"INCLINATION":82.9093,"RA_OF_ASC_NODE":241.6127,"ARG_OF_PERICENTER":222.4922,"MEAN_ANOMALY":250.4914,"EPHEMERIS_TYPE":0,"CLASSIFICATION_TYPE":"U","NORAD_CAT_ID":17525,"ELEMENT_SET_NO":999,"REV_AT_EPOCH":94159,"BSTAR":6.2404783e-5,"MEAN_MOTION_DOT":7.4e-7,"MEAN_MOTION_DDOT":0}]
